OBJECT_NAME,OBJECT_ID,EPOCH,MEAN_MOTION,ECCENTRICITY,INCLINATION,RA_OF_ASC_NODE,ARG_OF_PERICENTER,MEAN_ANOMALY,EPHEMERIS_TYPE,CLASSIFICATION_TYPE,NORAD_CAT_ID,ELEMENT_SET_NO,REV_AT_EPOCH,BSTAR,MEAN_MOTION_DOT,MEAN_MOTION_DDOT
BEIDOU-2 IGSO-5 (C10),2011-073A,2026-07-02T17:30:18.330912,1.00270596,.01145273,47.6496,271.3544,222.0502,141.5350,0,U,37948,999,5329,0,-.128E-5,0
LUCH 5A (SDCM/PRN 140),2011-074B,2026-07-10T11:17:38.748768,1.00272611,.0002561,8.8099,73.4648,58.0321,133.2729,0,U,37951,999,5328,0,-.48E-6,0
BEIDOU-2 G5 (C05),2012-008A,2026-07-10T20:43:38.356032,1.00269215,.0007375,3.6291,69.5487,270.5980,318.2349,0,U,38091,999,5260,0,.62E-6,0
BEIDOU-2 M3 (C11),2012-018A,2026-07-10T06:40:09.382368,1.86230078,.0020763,55.7367,304.0977,272.6276,87.1498,0,U,38250,999,9637,0,-.7E-6,0
BEIDOU-2 M4 (C12),2012-018B,2026-07-10T05:02:43.446048,1.86229687,.0012086,55.6367,303.3120,272.7348,87.1429,0,U,38251,999,9637,0,-.69E-6,0
SES-5 (EGNOS/PRN 136),2012-036A,2026-07-09T20:31:13.628640,1.00272424,.00020582,0.0450,319.9907,149.7218,130.8584,0,U,38652,999,4468,0,.46E-6,0
BEIDOU-2 M6 (C14),2012-050B,2026-07-10T10:57:49.480416,1.86230865,.0013046,56.5644,62.1251,1.0237,359.0425,0,U,38775,999,9374,0,-.46E-6,0
GSAT-10 (GAGAN/PRN 128),2012-051B,2026-07-10T11:37:38.582976,1.00271849,.00074502,0.1047,265.8772,186.9330,92.9780,0,U,38779,999,5033,0,-.154E-5,0
GPS BIIF-3  (PRN 24),2012-053A,2026-07-10T06:00:20.029248,2.00567808,.01816833,53.5890,142.6546,66.1329,295.7288,0,U,38833,999,9990,0,.35E-6,0
GSAT0103 (GALILEO-FM3),2012-055A,2026-07-09T18:23:01.882464,1.70473301,.00039458,55.8193,100.9259,309.3641,50.6099,0,U,38857,999,8539,0,-.19E-6,0
BEIDOU-2 G6 (C02),2012-059A,2026-07-10T19:08:11.305248,1.00273674,.0008932,4.4782,73.2665,326.5499,259.8878,0,U,38953,999,5014,0,-.171E-5,0
LUCH 5B (SDCM/PRN 125),2012-061A,2026-07-10T10:06:16.876224,1.00271079,.0003762,10.5304,49.6456,144.0609,229.9565,0,U,38977,999,4984,0,-.136E-5,0
COSMOS 2485 (747),2013-019A,2026-07-09T21:41:21.416640,2.13103398,.0022762,65.4318,72.8427,231.6212,128.2346,0,U,39155,999,10276,0,-.24E-6,0
GPS BIIF-4  (PRN 27),2013-023A,2026-07-10T02:49:39.627264,2.00563312,.01413852,54.4865,268.0387,51.1056,310.2117,0,U,39166,999,9634,0,.3E-7,0
IRNSS-1A,2013-034A,2026-07-10T17:17:25.711872,1.00281941,.0017567,35.7704,63.5328,183.4462,356.2994,0,U,39199,999,4760,0,.47E-6,0
GPS BIIF-5  (PRN 30),2014-008A,2026-07-10T02:52:16.869216,2.00561211,.00841762,53.6572,148.3845,231.5339,127.6822,0,U,39533,999,9014,0,.48E-6,0
ASTRA 5B (EGNOS/PRN 123),2014-011B,2026-07-10T12:00:24.203232,1.00271823,.00017849,0.0626,314.2374,162.6118,15.1666,0,U,39617,999,4490,0,.147E-5,0
COSMOS 2492 (754),2014-012A,2026-07-10T07:57:50.372928,2.13103364,.0010276,65.2829,313.1500,319.4135,40.5159,0,U,39620,999,9573,0,-.6E-6,0
IRNSS-1B,2014-017A,2026-07-10T17:17:10.737024,1.00274378,.0022328,28.8825,239.9967,191.5584,171.4704,0,U,39635,999,4503,0,.149E-5,0
LUCH 5V (SDCM/PRN 141),2014-023A,2026-07-10T19:47:21.715296,1.00275574,.0001989,5.1873,69.4951,72.1798,178.5837,0,U,39727,999,4459,0,-.265E-5,0
GPS BIIF-6  (PRN 06),2014-026A,2026-07-10T09:29:36.585312,2.00559176,.0038119,56.4859,330.6145,325.9139,33.8410,0,U,39741,999,8900,0,-.8E-6,0
COSMOS 2500 (755),2014-032A,2026-07-09T02:14:41.698752,2.13106082,.0008037,65.2189,312.9376,189.2565,170.7378,0,U,40001,999,9392,0,-.56E-6,0
GPS BIIF-7  (PRN 09),2014-045A,2026-07-09T23:43:45.547104,2.00559876,.00342049,55.3675,87.5565,118.3307,242.0477,0,U,40105,999,8653,0,-.37E-6,0
GSAT0201 (GALILEO 5),2014-050A,2026-07-10T01:18:12.802176,1.85519753,.16778151,48.8500,272.4979,180.2883,179.6634,0,U,40128,999,7874,0,-.22E-6,0
GSAT0202 (GALILEO 6),2014-050B,2026-07-10T07:26:04.375968,1.85520571,.16790215,48.8671,271.5730,181.0029,178.6755,0,U,40129,999,8091,0,-.18E-6,0
IRNSS-1C,2014-061A,2026-07-10T19:07:56.330400,1.00273045,.0022146,6.5761,88.4824,4.9478,205.2945,0,U,40269,999,4292,0,-.16E-5,0
GPS BIIF-8  (PRN 03),2014-068A,2026-07-08T20:37:58.928448,2.00577411,.00674461,57.0024,30.1204,71.3730,289.4121,0,U,40294,999,8564,0,-.5E-6,0
COSMOS 2501 (702K),2014-075A,2026-07-10T07:03:54.818208,2.13101344,.00226508,63.6181,189.5721,212.5784,147.3100,0,U,40315,999,9034,0,.118E-5,0
GPS BIIF-9  (PRN 26),2015-013A,2026-07-10T11:55:36.493824,2.00549902,.0110191,53.1665,203.2135,40.3325,320.5274,0,U,40534,999,8229,0,.11E-5,0
GSAT0203 (GALILEO 7),2015-017A,2026-07-10T02:08:55.601088,1.70476121,.0002503,56.7788,340.9723,258.1316,101.8369,0,U,40544,999,6959,0,-.8E-6,0
GSAT0204 (GALILEO 8),2015-017B,2026-07-10T08:17:21.294240,1.70475622,.0002638,56.7851,340.9839,235.0424,124.9287,0,U,40545,999,3264,0,-.81E-6,0
